{"type":"FeatureCollection","features":[
{"type":"Feature","properties":{"name":"Strait of Hormuz","traffic":"21M bbl/day oil","significance":"~20% global oil supply"},"geometry":{"type":"Polygon","coordinates":[[[56.0,26.8],[56.5,26.2],[56.8,25.8],[57.0,25.5],[56.5,25.2],[56.0,25.5],[55.5,26.0],[55.0,26.4],[55.5,26.8],[56.0,26.8]]]}},
{"type":"Feature","properties":{"name":"Suez Canal","traffic":"12-15% global trade","significance":"Shortest Europe-Asia maritime route"},"geometry":{"type":"Polygon","coordinates":[[[32.25,31.3],[32.65,31.3],[32.65,29.9],[32.25,29.9],[32.25,31.3]]]}},
{"type":"Feature","properties":{"name":"Bab el-Mandeb","traffic":"6.2M bbl/day oil","significance":"Red Sea chokepoint, Houthi threat zone"},"geometry":{"type":"Polygon","coordinates":[[[43.0,12.8],[43.8,12.8],[43.8,12.2],[43.0,12.2],[43.0,12.8]]]}},
{"type":"Feature","properties":{"name":"Strait of Malacca","traffic":"16M bbl/day oil","significance":"Busiest maritime strait, China's energy lifeline"},"geometry":{"type":"Polygon","coordinates":[[[99.5,5.5],[101.0,3.0],[103.5,1.2],[104.5,1.3],[103.0,3.5],[100.5,6.0],[99.5,5.5]]]}},
{"type":"Feature","properties":{"name":"Taiwan Strait","traffic":"88% of largest container ships","significance":"Key semiconductor supply chain route"},"geometry":{"type":"Polygon","coordinates":[[[118.5,25.5],[121.0,25.5],[121.0,23.5],[118.5,23.5],[118.5,25.5]]]}},
{"type":"Feature","properties":{"name":"Turkish Straits (Bosphorus)","traffic":"3M bbl/day oil","significance":"Black Sea access, Montreux Convention"},"geometry":{"type":"Polygon","coordinates":[[[28.8,41.3],[29.2,41.3],[29.2,40.9],[28.8,40.9],[28.8,41.3]]]}},
{"type":"Feature","properties":{"name":"GIUK Gap","traffic":"NATO submarine surveillance","significance":"North Atlantic naval chokepoint"},"geometry":{"type":"Polygon","coordinates":[[[-25,62],[-15,64],[-5,63],[0,60],[-10,58],[-20,59],[-25,62]]]}},
{"type":"Feature","properties":{"name":"Panama Canal","traffic":"5% global trade","significance":"Atlantic-Pacific shortcut"},"geometry":{"type":"Polygon","coordinates":[[[-79.9,9.4],[-79.4,9.4],[-79.4,8.9],[-79.9,8.9],[-79.9,9.4]]]}},
{"type":"Feature","properties":{"name":"Danish Straits","traffic":"Baltic Sea access","significance":"Russian Navy Baltic exit point"},"geometry":{"type":"Polygon","coordinates":[[[10.5,57.5],[13.0,57.5],[13.0,55.5],[10.5,55.5],[10.5,57.5]]]}},
{"type":"Feature","properties":{"name":"Mozambique Channel","traffic":"LNG and oil tankers","significance":"East Africa energy route"},"geometry":{"type":"Polygon","coordinates":[[[40,-14],[44,-14],[44,-22],[40,-22],[40,-14]]]}}
]}
