{"type":"FeatureCollection","features":[
{"type":"Feature","properties":{"name":"TAT-14","capacity":"3.2 Tbps","owners":"Multiple","year":2001},"geometry":{"type":"LineString","coordinates":[[-73.95,40.67],[-60,42],[-40,45],[-20,48],[-5,50],[0,51],[3,53]]}},
{"type":"Feature","properties":{"name":"AC-1 (Atlantic Crossing)","capacity":"2.56 Tbps","owners":"Multiple","year":2000},"geometry":{"type":"LineString","coordinates":[[-74,40.5],[-55,38],[-35,37],[-15,37],[0,37],[5,38]]}},
{"type":"Feature","properties":{"name":"SEA-ME-WE 5","capacity":"24 Tbps","owners":"Consortium","year":2017},"geometry":{"type":"LineString","coordinates":[[103.8,1.3],[98,5],[80,10],[72,15],[60,18],[45,13],[40,12],[35,31],[30,31],[25,35],[20,38],[12,37],[5,36],[2,43],[-5,43],[-9,38]]}},
{"type":"Feature","properties":{"name":"PEACE Cable","capacity":"96 Tbps","owners":"PEACE Cable International","year":2022},"geometry":{"type":"LineString","coordinates":[[117.2,39],[114,22],[110,12],[103.8,1.3],[95,7],[80,10],[72,18],[60,22],[45,13],[35,31],[30,31],[25,35],[13,45],[8,44],[2,43]]}},
{"type":"Feature","properties":{"name":"Marea","capacity":"200 Tbps","owners":"Microsoft/Meta","year":2017},"geometry":{"type":"LineString","coordinates":[[-73.98,39.5],[-55,40],[-35,40],[-20,40],[-10,39],[-4,37],[-2,37]]}},
{"type":"Feature","properties":{"name":"FASTER","capacity":"60 Tbps","owners":"Google/Others","year":2016},"geometry":{"type":"LineString","coordinates":[[-122.4,37.8],[-140,40],[-160,42],[-180,43],[170,43],[160,42],[145,38],[140,35]]}},
{"type":"Feature","properties":{"name":"APG (Asia Pacific Gateway)","capacity":"54.8 Tbps","owners":"Consortium","year":2016},"geometry":{"type":"LineString","coordinates":[[140,35],[130,33],[125,30],[120,25],[115,20],[110,16],[106,10],[104,1]]}},
{"type":"Feature","properties":{"name":"EASSy","capacity":"10 Tbps","owners":"Consortium","year":2010},"geometry":{"type":"LineString","coordinates":[[35,31],[40,12],[43,11],[45,2],[47,-1],[50,-6],[55,-15],[40,-26],[32,-29],[31,-34]]}},
{"type":"Feature","properties":{"name":"WACS","capacity":"14.5 Tbps","owners":"Consortium","year":2012},"geometry":{"type":"LineString","coordinates":[[-6,36],[-10,33],[-15,28],[-17,15],[-5,6],[3,5],[8,4],[9,4],[12,-4],[12,-9],[13,-15],[18,-34]]}},
{"type":"Feature","properties":{"name":"Pacific Light Cable","capacity":"144 Tbps","owners":"Google","year":2023},"geometry":{"type":"LineString","coordinates":[[-118.2,33.7],[-130,30],[-150,25],[-170,20],[180,15],[170,12],[150,10],[130,8],[120,15],[115,15]]}},
{"type":"Feature","properties":{"name":"Arctic Connect","capacity":"200 Tbps","owners":"Cinia/Others","year":2025},"geometry":{"type":"LineString","coordinates":[[25,60],[30,65],[40,70],[60,72],[90,73],[120,72],[140,65],[150,60],[170,55]]}},
{"type":"Feature","properties":{"name":"2Africa","capacity":"180 Tbps","owners":"Meta/Others","year":2024},"geometry":{"type":"LineString","coordinates":[[-6,36],[-10,33],[-17,15],[-5,6],[3,5],[8,4],[12,-4],[12,-9],[40,-26],[50,-6],[45,2],[43,11],[40,12],[35,31],[30,31],[25,35],[13,45],[8,44]]}},
{"type":"Feature","properties":{"name":"SJC (Southeast Asia-Japan)","capacity":"28 Tbps","owners":"Consortium","year":2013},"geometry":{"type":"LineString","coordinates":[[140,35],[130,30],[121,25],[118,22],[115,15],[110,10],[108,16],[104,1]]}},
{"type":"Feature","properties":{"name":"Dunant","capacity":"250 Tbps","owners":"Google","year":2020},"geometry":{"type":"LineString","coordinates":[[-73.5,40.5],[-55,42],[-35,43],[-15,44],[-5,44],[-2,43]]}}
]}
